[{"OBJECT_NAME":"TK-2","OBJECT_ID":"2022-031A","EPOCH":"2026-03-09T22:51:17.143200","MEAN_MOTION":15.02943491,"ECCENTRICITY":0.00164117,"INCLINATION":97.8366,"RA_OF_ASC_NODE":263.9365,"ARG_OF_PERICENTER":100.3205,"MEAN_ANOMALY":259.9871,"EPHEMERIS_TYPE":0,"CLASSIFICATION_TYPE":"U","NORAD_CAT_ID":52150,"ELEMENT_SET_NO":999,"REV_AT_EPOCH":21555,"BSTAR":0.00040164474,"MEAN_MOTION_DOT":5.349e-5,"MEAN_MOTION_DDOT":0},{"OBJECT_NAME":"STARLINK-34925","OBJECT_ID":"2025-179Q","EPOCH":"2026-03-09T16:58:10.617312","MEAN_MOTION":15.05651298,"ECCENTRICITY":0.00010161,"INCLINATION":97.6023,"RA_OF_ASC_NODE":113.0242,"ARG_OF_PERICENTER":122.52,"MEAN_ANOMALY":237.6125,"EPHEMERIS_TYPE":0,"CLASSIFICATION_TYPE":"U","NORAD_CAT_ID":65249,"ELEMENT_SET_NO":999,"REV_AT_EPOCH":3182,"BSTAR":0.00022494632,"MEAN_MOTION_DOT":3.187e-5,"MEAN_MOTION_DDOT":0}]
